STARLINK-32779          
1 63030C 25034B   26111.72895833  .00030022  00000+0  10122-2 0  1112
2 63030  53.1604  71.4542 0001350 100.6395 122.2659 15.30165052    15
STARLINK-32716          
1 63031C 25034C   26111.67062500  .00015198  00000+0  51242-3 0  1110
2 63031  53.1594  58.2920 0001304 103.8619 126.3051 15.30172293    16
STARLINK-32776          
1 63032C 25034D   26111.71090278  .00023099  00000+0  77869-3 0  1111
2 63032  53.1583  58.6322 0001323 100.7098  83.8942 15.30173202    10
STARLINK-32772          
1 63033C 25034E   26111.71159722  .00062116  00000+0  20919-2 0  1118
2 63033  53.1607  58.2645 0001418  91.5606 282.9029 15.30186460    17
STARLINK-32830          
1 63034C 25034F   26111.68173611  .00027320  00000+0  92104-3 0  1112
2 63034  53.1608  58.4471 0001294  89.2740  97.4357 15.30169181    17
STARLINK-32801          
1 63035C 25034G   26111.72895833  .00033901  00000+0  11428-2 0  1116
2 63035  53.1597  58.4013 0001338  93.3184 266.4149 15.30169255    13
STARLINK-32818          
1 63036C 25034H   26111.68590278 -.00107050  00000+0 -36087-2 0  1114
2 63036  53.1606  58.4759 0001301  90.6386  95.8161 15.30237466    14
STARLINK-32810          
1 63037C 25034J   26111.69701389  .00016244  00000+0  54765-3 0  1119
2 63037  53.1600  58.5154 0001286  97.7004 103.4133 15.30173940    17
STARLINK-32812          
1 63038C 25034K   26111.70812500  .00032345  00000+0  10905-2 0  1117
2 63038  53.1604  58.4131 0001268  96.5875 189.0481 15.30164468    10
STARLINK-32811          
1 63039C 25034L   26111.70951389  .00002585  00000+0  87168-4 0  1117
2 63039  53.1601  58.4326 0001294  99.4270 182.2583 15.30171100    13
STARLINK-32832          
1 63040C 25034M   26111.73659722 -.00076938  00000+0 -25950-2 0  1112
2 63040  53.1609  58.1562 0001344  93.5896  53.0097 15.30206049    13
STARLINK-32820          
1 63041C 25034N   26111.73243056  .00027411  00000+0  92421-3 0  1110
2 63041  53.1607  58.2433 0001372  96.9655 351.7093 15.30164643    18
STARLINK-32795          
1 63042C 25034P   26111.69493056  .00042494  00000+0  14328-2 0  1110
2 63042  53.1593  58.1545 0001271  92.4169 283.3557 15.30156521    16
STARLINK-32827          
1 63043C 25034Q   26111.71784722  .00017321  00000+0  58402-3 0  1110
2 63043  53.1604  71.4813 0001340 100.2731  73.0288 15.30169175    10
STARLINK-32735          
1 63044C 25034R   26111.69701389  .00001240  00000+0  41818-4 0  1113
2 63044  53.1601  70.9142 0001315  92.1664 303.6517 15.30182693    10
STARLINK-32828          
1 63045C 25034S   26111.67062500 -.00017713  00000+0 -59713-3 0  1113
2 63045  53.1582  71.3083 0001356  96.8286  13.9490 15.30192083    19
STARLINK-32738          
1 63046C 25034T   26111.67965278 -.00003595  00000+0 -12124-3 0  1116
2 63046  53.1593  58.1708 0001291 102.3952 218.2483 15.30176739    12
STARLINK-32590          
1 63047C 25034U   26111.67409722 -.00119050  00000+0 -40134-2 0  1119
2 63047  53.1606  58.5395 0001206  95.0108  20.5557 15.30242823    15
STARLINK-32790          
1 63048C 25034V   26111.70812500  .00023204  00000+0  78235-3 0  1113
2 63048  53.1587  58.5852 0001238 100.9396  97.4532 15.30167746    18
STARLINK-32829          
1 63049C 25034W   26111.68868056  .00008271  00000+0  27886-3 0  1111
2 63049  53.1606  71.5810 0001349 100.5161 289.4729 15.30174695    11
STARLINK-32816          
1 63050C 25034X   26111.72340278  .00024444  00000+0  82420-3 0  1114
2 63050  53.1592  71.1895 0001545  93.2834 244.4266 15.30165718    12
STARLINK-32835          
1 63051C 25034Y   26111.68520833  .00008261  00000+0  27852-3 0  1114
2 63051  53.1601  71.4538 0001246  98.5748 347.8879 15.30176683    12
STARLINK-11550 [DTC]    
1 63052C 25035A   26111.70048611 -.00052468  00000+0 -40790-3 0  1114
2 63052  43.0012 115.8744 0001628 267.4830 240.4890 15.70842201    13
STARLINK-11563 [DTC]    
1 63053C 25035B   26111.67618056 -.00017215  00000+0 -13382-3 0  1115
2 63053  43.0011 116.0954 0001806 272.4257  67.8799 15.70825475    19
STARLINK-11347 [DTC]    
1 63054C 25035C   26111.74701389 -.00050014  00000+0 -38898-3 0  1119
2 63054  43.0013 116.1147 0001610 267.7490 293.2420 15.70831298    12
STARLINK-11558 [DTC]    
1 63055C 25035D   26111.68312500 -.00036182  00000+0 -28122-3 0  1115
2 63055  43.0014 115.7531 0001308 272.8962 226.9700 15.70840677    16
STARLINK-11392 [DTC]    
1 63056C 25035E   26111.69909722 -.00027676  00000+0 -21519-3 0  1116
2 63056  43.0013 116.2536 0001689 270.9770  78.8431 15.70826195    19
STARLINK-11406 [DTC]    
1 63057C 25035F   26111.69701389 -.00005408  00000+0 -42052-4 0  1111
2 63057  43.0012 116.0404 0001618 268.6883 159.5152 15.70813106    17
STARLINK-11418 [DTC]    
1 63058C 25035G   26111.69979167 -.00000145  00000+0 -11287-5 0  1113
2 63058  43.0010 116.4726 0001490 269.5226 354.0534 15.70795650    15
STARLINK-11509 [DTC]    
1 63059C 25035H   26111.68381944 -.00034460  00000+0 -26800-3 0  1115
2 63059  43.0011 116.4183 0001496 279.1815 314.0709 15.70824511    10
STARLINK-11403 [DTC]    
1 63060C 25035J   26111.69909722 -.00009188  00000+0 -71447-4 0  1115
2 63060  43.0013 116.1759 0001654 268.0402 111.8452 15.70813558    12
STARLINK-11409 [DTC]    
1 63061C 25035K   26111.70673611 -.00042102  00000+0 -32723-3 0  1119
2 63061  43.0012 116.2166 0001557 259.1870 128.7115 15.70843375    10
STARLINK-11412 [DTC]    
1 63062C 25035L   26111.73312500 -.00095627  00000+0 -74346-3 0  1117
2 63062  43.0011 115.8942 0001467 249.5127 353.0828 15.70862883    14
STARLINK-11399 [DTC]    
1 63063C 25035M   26111.69493056 -.00053349  00000+0 -41480-3 0  1117
2 63063  43.0012 115.8250 0001688 275.5738 231.0204 15.70839847    17
STARLINK-11408 [DTC]    
1 63064C 25035N   26111.73312500 -.00072785  00000+0 -56582-3 0  1111
2 63064  43.0014 115.5189 0001614 273.9830 118.9158 15.70853557    17
STARLINK-33635          
1 63065C 25035P   26111.73520833 -.00105850  00000+0 -38345-2 0  1118
2 63065  43.0026 263.9583 0001408 268.2617  80.1422 15.27624312    19
STARLINK-33622          
1 63066C 25035Q   26111.71506944  .00015283  00000+0  55352-3 0  1110
2 63066  43.0001 263.8240 0001199 270.8844  65.5531 15.27573273    17
STARLINK-33628          
1 63067C 25035R   26111.66993056 -.00128630  00000+0 -46573-2 0  1116
2 63067  43.0014 264.5617 0001628 273.5217 336.4344 15.27654601    16
STARLINK-33627          
1 63068C 25035S   26111.71437500 -.00147300  00000+0 -53349-2 0  1114
2 63068  43.0029 264.2076 0001693 269.1814 267.9417 15.27652434    16
STARLINK-33620          
1 63069C 25035T   26111.69840278 -.00116770  00000+0 -42292-2 0  1114
2 63069  43.0024 264.2501 0001450 266.7072 203.6727 15.27637029    19
STARLINK-33604          
1 63070C 25035U   26111.70951389 -.00154680  00000+0 -56033-2 0  1114
2 63070  43.0007 264.5289 0001429 280.9504 109.1229 15.27649754    17
STARLINK-33624          
1 63071C 25035V   26111.73451389 -.00111510  00000+0 -40393-2 0  1110
2 63071  43.0009 260.7357 0001348 265.9601 336.9215 15.27629587    12
STARLINK-33623          
1 63072C 25035W   26111.73451389 -.00139060  00000+0 -50394-2 0  1113
2 63072  43.0009 264.3003 0001525 282.4265 280.6827 15.27631260    13
STARLINK-33586          
1 63073C 25035X   26111.73034722 -.00139040  00000+0 -50374-2 0  1118
2 63073  43.0028 256.9276 0001550 272.0888 100.8545 15.27638375    12
STARLINK-33605          
1 63074C 25035Y   26111.75256944 -.00112150  00000+0 -40630-2 0  1110
2 63074  43.0015 263.6977 0001383 262.5400 245.1287 15.27627517    12
STARLINK-32839          
1 63077C 25037A   26111.73868056  .00014428  00000+0  12091-2 0  1113
2 63077  70.0014 245.9986 0003342 271.4302 252.7500 14.98324128    15
STARLINK-32821          
1 63078C 25037B   26111.74354167  .00006447  00000+0  54034-3 0  1114
2 63078  70.0015 245.9802 0003133 270.1636 281.1461 14.98324392    13
STARLINK-32817          
1 63079C 25037C   26111.72479167 -.00001645  00000+0 -13787-3 0  1118
2 63079  70.0010 245.8519 0003324 270.8352 336.9310 14.98328518    13
STARLINK-32906          
1 63080C 25037D   26111.70465278  .00026278  00000+0  22022-2 0  1114
2 63080  70.0012 246.1792 0003289 270.9022 339.6612 14.98316041    12
STARLINK-32895          
1 63081C 25037E   26111.68590278 -.00067071  00000+0 -56200-2 0  1114
2 63081  70.0013 246.2042 0003546 269.0960 263.9105 14.98368565    13
STARLINK-32933          
1 63082C 25037F   26111.70604167 -.00017530  00000+0 -14691-2 0  1114
2 63082  70.0009 245.9980 0002863 272.6303 143.0988 14.98338792    14
STARLINK-32932          
1 63083C 25037G   26111.73243056 -.00008735  00000+0 -73211-3 0  1115
2 63083  70.0013 245.9620 0002969 272.3171 264.1005 14.98329612    14
STARLINK-32908          
1 63084C 25037H   26111.69215278 -.00018533  00000+0 -15532-2 0  1114
2 63084  70.0009 246.0099 0003055 272.1490  92.0837 14.98338471    15
STARLINK-32505          
1 63085C 25037J   26111.73937500  .00021928  00000+0  18380-2 0  1113
2 63085  70.0011 246.0698 0003228 271.9231 188.5110 14.98312493    17
STARLINK-32914          
1 63086C 25037K   26111.74145833 -.00006073  00000+0 -50905-3 0  1111
2 63086  70.0010 245.9084 0002662 276.9097 330.7033 14.98329060    13
STARLINK-32918          
1 63087C 25037L   26111.75256944  .00011397  00000+0  95513-3 0  1116
2 63087  70.0014 245.9840 0003525 270.6926 306.7910 14.98321767    12
STARLINK-32912          
1 63088C 25037M   26111.75187500  .00013684  00000+0  11468-2 0  1115
2 63088  70.0013 245.7135 0003081 272.8145 187.6372 14.98322433    10
STARLINK-32910          
1 63089C 25037N   26111.72756944 -.00008792  00000+0 -73690-3 0  1119
2 63089  70.0012 245.9694 0003226 271.3443 237.9692 14.98330143    19
STARLINK-32903          
1 63090C 25037P   26111.73520833  .00003854  00000+0  32294-3 0  1115
2 63090  70.0013 245.7322 0003430 271.4143 122.5611 14.98327465    16
